METHANESAT              
1 59101U 24043D   25326.91898160  .00003391  00000+0  30265-3 0  9993
2 59101  97.8216  92.5159 0010231 347.6194  12.4774 14.96602509 93787
GOSAT-GW (IBUKI GW)     
1 64694U 25141A   25327.14636436  .00001010  00000+0  18646-3 0  9993
2 64694  98.0391 263.0165 0001450  82.6243 277.5126 14.67568238 21620
GHGSAT-C1               
1 46278U 20061G   25327.18755990  .00023968  00000+0  32446-3 0  9998
2 46278  97.2339  42.5053 0002972  87.9783 272.1814 15.57701449291272
GHGSAT-C12              
1 64529U 25135B   25327.05625694  .00004574  00000+0  22544-3 0  9997
2 64529  97.4613  79.1979 0005651 158.1005 202.0472 15.18429976 23528
GHGSAT-C13              
1 64548U 25135W   25327.09263288  .00003557  00000+0  17207-3 0  9999
2 64548  97.4637  79.5004 0002667 101.0842 259.0692 15.19237820 23542
GHGSAT-C2               
1 47509U 21006DA  25327.07781264  .00006997  00000+0  21008-3 0  9992
2 47509  97.2465  12.8940 0005487 170.9409 189.1934 15.34733168268202
GHGSAT-C3               
1 52737U 22057F   25327.14167507  .00007271  00000+0  24564-3 0  9990
2 52737  97.6335 100.9767 0007460 126.8760 233.3165 15.30952637193979
GHGSAT-C4               
1 52746U 22057Q   25327.16061314  .00007024  00000+0  23743-3 0  9995
2 52746  97.6263 100.0344 0007803 114.6093 245.5961 15.30944888193985
GHGSAT-C5               
1 52744U 22057N   25327.17771157  .00007198  00000+0  24329-3 0  9990
2 52744  97.6422 102.3478 0008485 124.2904 235.9140 15.30933824193988
GHGSAT-C6               
1 56204U 23054AC  25327.20653054  .00013668  00000+0  28007-3 0  9998
2 56204  97.3171 229.2478 0010791  76.2896 283.9554 15.46129272146553
GHGSAT-C7               
1 56209U 23054AH  25327.17345690  .00010452  00000+0  22554-3 0  9992
2 56209  97.3130 228.4996 0010701  70.1549 290.0852 15.44680358146531
GHGSAT-C8               
1 56186U 23054J   25327.17980025  .00012843  00000+0  26325-3 0  9999
2 56186  97.3138 228.6563 0008375  91.8634 268.3575 15.46161610146531
SENTINEL-5P             
1 42969U 17064A   25326.81921013  .00000083  00000+0  60160-4 0  9998
2 42969  98.7755 265.5829 0000981  82.1330 277.9957 14.19509961420282
ENMAP                   
1 52159U 22033C   25327.20549792  .00000604  00000+0  97217-4 0  9998
2 52159  97.9786  47.4032 0001149 107.0624 253.0711 14.75015137196295
PRISMA                  
1 44072U 19015A   25326.56642844  .00001140  00000+0  14437-3 0  9997
2 44072  97.8721  39.3136 0001458  94.3709 265.7671 14.83701076361414
SENTINEL-2A             
1 40697U 15028A   25327.20071610  .00000176  00000+0  83616-4 0  9999
2 40697  98.5713  40.0105 0001076  91.8293 268.3013 14.30815775544273
SENTINEL-2B             
1 42063U 17013A   25327.19345568  .00000175  00000+0  83479-4 0  9994
2 42063  98.5647  39.9162 0001100 103.1837 256.9469 14.30824002455189
SENTINEL-2C             
1 60989U 24157A   25327.08874455  .00000187  00000+0  87804-4 0  9997
2 60989  98.5636  39.8643 0000763  98.6662 261.4607 14.30812694 63516
LANDSAT 8               
1 39084U 13008A   25327.15425955  .00000451  00000+0  11025-3 0  9992
2 39084  98.2093  35.5144 0001167  85.4937 274.6394 14.57111934667897
LANDSAT 9               
1 49260U 21088A   25327.11993527  .00000514  00000+0  12418-3 0  9994
2 49260  98.2117  35.5125 0001211  96.0501 264.0836 14.57100905220991
